{
  "type": "FeatureCollection",
  "features": [
    {
      "type": "Feature",
      "properties": {
        "norad_id": 30596,
        "name": "FENGYUN 1C DEB",
        "group": "fengyun-1c-debris",
        "lat": 43.240541044008616,
        "lon": -176.76842361744588,
        "alt_km": 858.5040795294917,
        "timestamp": "2025-12-23T18:59:32.244844+00:00",
        "meta_object_name": "FENGYUN 1C DEB",
        "meta_object_id": "1999-025AMB",
        "meta_epoch": "2025-12-20T23:38:06.326880",
        "meta_mean_motion": 14.34381663,
        "meta_eccentricity": 0.0247192,
        "meta_inclination": 98.4132,
        "meta_ra_of_asc_node": 352.4962,
        "meta_arg_of_pericenter": 264.406,
        "meta_mean_anomaly": 150.0993,
        "meta_ephemeris_type": 0,
        "meta_classification_type": "U",
        "meta_norad_cat_id": 30596,
        "meta_element_set_no": 999,
        "meta_rev_at_epoch": 98679,
        "meta_bstar": 0.00026485,
        "meta_mean_motion_dot": 9.96e-06,
        "meta_mean_motion_ddot": 0,
        "tle_line1": "1 30596U 99025AMB 25354.98479545  .00000996  00000+0  26485-3 0  9999",
        "tle_line2": "2 30596  98.4132 352.4962 0247192 264.4060 150.0993 14.34381663986795"
      },
      "geometry": {
        "type": "Point",
        "coordinates": [
          -176.76842361744588,
          43.240541044008616
        ]
      }
    },
    {
      "type": "Feature",
      "properties": {
        "norad_id": 30597,
        "name": "FENGYUN 1C DEB",
        "group": "fengyun-1c-debris",
        "lat": -2.4020060584679235,
        "lon": 115.37137602510903,
        "alt_km": 571.7935269839572,
        "timestamp": "2025-12-23T18:59:32.244855+00:00",
        "meta_object_name": "FENGYUN 1C DEB",
        "meta_object_id": "1999-025AMC",
        "meta_epoch": "2025-12-22T06:48:12.369600",
        "meta_mean_motion": 14.93233042,
        "meta_eccentricity": 0.0046403,
        "meta_inclination": 98.9414,
        "meta_ra_of_asc_node": 294.0371,
        "meta_arg_of_pericenter": 132.6811,
        "meta_mean_anomaly": 227.8328,
        "meta_ephemeris_type": 0,
        "meta_classification_type": "U",
        "meta_norad_cat_id": 30597,
        "meta_element_set_no": 999,
        "meta_rev_at_epoch": 98679,
        "meta_bstar": 0.0052136953,
        "meta_mean_motion_dot": 0.00056011,
        "meta_mean_motion_ddot": 0,
        "tle_line1": "1 30597U 99025AMC 25356.28347650  .00056011  00000+0  52137-2 0  9997",
        "tle_line2": "2 30597  98.9414 294.0371 0046403 132.6811 227.8328 14.93233042986798"
      },
      "geometry": {
        "type": "Point",
        "coordinates": [
          115.37137602510903,
          -2.4020060584679235
        ]
      }
    },
    {
      "type": "Feature",
      "properties": {
        "norad_id": 30599,
        "name": "FENGYUN 1C DEB",
        "group": "fengyun-1c-debris",
        "lat": -54.669193714059396,
        "lon": 176.79069974220607,
        "alt_km": 778.8935583020648,
        "timestamp": "2025-12-23T18:59:32.244864+00:00",
        "meta_object_name": "FENGYUN 1C DEB",
        "meta_object_id": "1999-025AME",
        "meta_epoch": "2025-12-22T06:20:23.996832",
        "meta_mean_motion": 14.1973512,
        "meta_eccentricity": 0.03018402,
        "meta_inclination": 98.6022,
        "meta_ra_of_asc_node": 7.6345,
        "meta_arg_of_pericenter": 317.1611,
        "meta_mean_anomaly": 40.6398,
        "meta_ephemeris_type": 0,
        "meta_classification_type": "U",
        "meta_norad_cat_id": 30599,
        "meta_element_set_no": 999,
        "meta_rev_at_epoch": 97302,
        "meta_bstar": 0.00072444523,
        "meta_mean_motion_dot": 2.37e-05,
        "meta_mean_motion_ddot": 0,
        "tle_line1": "1 30599U 99025AME 25356.26416663  .00002370  00000+0  72445-3 0  9992",
        "tle_line2": "2 30599  98.6022   7.6345 0301840 317.1611  40.6398 14.19735120973020"
      },
      "geometry": {
        "type": "Point",
        "coordinates": [
          176.79069974220607,
          -54.669193714059396
        ]
      }
    },
    {
      "type": "Feature",
      "properties": {
        "norad_id": 30600,
        "name": "FENGYUN 1C DEB",
        "group": "fengyun-1c-debris",
        "lat": -40.41790162027311,
        "lon": 114.55783649833333,
        "alt_km": 638.268912180044,
        "timestamp": "2025-12-23T18:59:32.244873+00:00",
        "meta_object_name": "FENGYUN 1C DEB",
        "meta_object_id": "1999-025AMF",
        "meta_epoch": "2025-12-22T19:45:34.111008",
        "meta_mean_motion": 14.07639509,
        "meta_eccentricity": 0.03264323,
        "meta_inclination": 98.3895,
        "meta_ra_of_asc_node": 300.8763,
        "meta_arg_of_pericenter": 218.4416,
        "meta_mean_anomaly": 139.309,
        "meta_ephemeris_type": 0,
        "meta_classification_type": "U",
        "meta_norad_cat_id": 30600,
        "meta_element_set_no": 999,
        "meta_rev_at_epoch": 94574,
        "meta_bstar": 0.0023241533,
        "meta_mean_motion_dot": 6.358e-05,
        "meta_mean_motion_ddot": 0,
        "tle_line1": "1 30600U 99025AMF 25356.82331147  .00006358  00000+0  23242-2 0  9990",
        "tle_line2": "2 30600  98.3895 300.8763 0326432 218.4416 139.3090 14.07639509945744"
      },
      "geometry": {
        "type": "Point",
        "coordinates": [
          114.55783649833333,
          -40.41790162027311
        ]
      }
    },
    {
      "type": "Feature",
      "properties": {
        "norad_id": 30602,
        "name": "FENGYUN 1C DEB",
        "group": "fengyun-1c-debris",
        "lat": -13.280428913187318,
        "lon": -84.56887795948683,
        "alt_km": 596.0158669639313,
        "timestamp": "2025-12-23T18:59:32.244882+00:00",
        "meta_object_name": "FENGYUN 1C DEB",
        "meta_object_id": "1999-025AMH",
        "meta_epoch": "2025-12-23T05:17:24.364896",
        "meta_mean_motion": 14.92678801,
        "meta_eccentricity": 0.00137456,
        "meta_inclination": 99.0334,
        "meta_ra_of_asc_node": 272.6247,
        "meta_arg_of_pericenter": 91.6507,
        "meta_mean_anomaly": 68.9615,
        "meta_ephemeris_type": 0,
        "meta_classification_type": "U",
        "meta_norad_cat_id": 30602,
        "meta_element_set_no": 999,
        "meta_rev_at_epoch": 97961,
        "meta_bstar": 0.0079673109,
        "meta_mean_motion_dot": 0.00083185,
        "meta_mean_motion_ddot": 0,
        "tle_line1": "1 30602U 99025AMH 25357.22042089  .00083185  00000+0  79673-2 0  9993",
        "tle_line2": "2 30602  99.0334 272.6247 0013745  91.6507  68.9615 14.92678801979612"
      },
      "geometry": {
        "type": "Point",
        "coordinates": [
          -84.56887795948683,
          -13.280428913187318
        ]
      }
    },
    {
      "type": "Feature",
      "properties": {
        "norad_id": 30603,
        "name": "FENGYUN 1C DEB",
        "group": "fengyun-1c-debris",
        "lat": -37.79889359974377,
        "lon": 26.143823977385864,
        "alt_km": 1067.07592476825,
        "timestamp": "2025-12-23T18:59:32.244891+00:00",
        "meta_object_name": "FENGYUN 1C DEB",
        "meta_object_id": "1999-025AMJ",
        "meta_epoch": "2025-12-21T14:02:09.800160",
        "meta_mean_motion": 13.84147604,
        "meta_eccentricity": 0.018352,
        "meta_inclination": 98.4081,
        "meta_ra_of_asc_node": 17.5797,
        "meta_arg_of_pericenter": 181.2311,
        "meta_mean_anomaly": 310.5448,
        "meta_ephemeris_type": 0,
        "meta_classification_type": "U",
        "meta_norad_cat_id": 30603,
        "meta_element_set_no": 999,
        "meta_rev_at_epoch": 94998,
        "meta_bstar": 0.0010152,
        "meta_mean_motion_dot": 1.252e-05,
        "meta_mean_motion_ddot": 0,
        "tle_line1": "1 30603U 99025AMJ 25355.58483565  .00001252  00000+0  10152-2 0  9991",
        "tle_line2": "2 30603  98.4081  17.5797 0183520 181.2311 310.5448 13.84147604949988"
      },
      "geometry": {
        "type": "Point",
        "coordinates": [
          26.143823977385864,
          -37.79889359974377
        ]
      }
    },
    {
      "type": "Feature",
      "properties": {
        "norad_id": 30604,
        "name": "FENGYUN 1C DEB",
        "group": "fengyun-1c-debris",
        "lat": 62.239281531593114,
        "lon": -131.55123032314447,
        "alt_km": 924.3573206513165,
        "timestamp": "2025-12-23T18:59:32.244902+00:00",
        "meta_object_name": "FENGYUN 1C DEB",
        "meta_object_id": "1999-025AMK",
        "meta_epoch": "2025-12-23T01:42:50.198112",
        "meta_mean_motion": 14.2362725,
        "meta_eccentricity": 0.02090782,
        "meta_inclination": 98.4011,
        "meta_ra_of_asc_node": 31.4551,
        "meta_arg_of_pericenter": 336.5856,
        "meta_mean_anomaly": 50.8452,
        "meta_ephemeris_type": 0,
        "meta_classification_type": "U",
        "meta_norad_cat_id": 30604,
        "meta_element_set_no": 999,
        "meta_rev_at_epoch": 97986,
        "meta_bstar": 0.00028486108,
        "meta_mean_motion_dot": 7.67e-06,
        "meta_mean_motion_ddot": 0,
        "tle_line1": "1 30604U 99025AMK 25357.07141433  .00000767  00000+0  28486-3 0  9993",
        "tle_line2": "2 30604  98.4011  31.4551 0209078 336.5856  50.8452 14.23627250979864"
      },
      "geometry": {
        "type": "Point",
        "coordinates": [
          -131.55123032314447,
          62.239281531593114
        ]
      }
    }
  ]
}